{"type":"FeatureCollection","features":[{"type":"Feature","properties":{"PlaceName":"FSU","marker-color":"#ff0000","marker-size":"medium","marker-symbol":"circle"},"geometry":{"coordinates":[-84.2978859,30.44218548],"type":"Point"}},{"type":"Feature","properties":{"PlaceName":"Serenity Court"},"geometry":{"coordinates":[-84.31993706,30.43271038],"type":"Point"}},{"type":"Feature","properties":{"PlaceName":"Villa Cristina"},"geometry":{"coordinates":[-84.31801696,30.43940702],"type":"Point"}},{"type":"Feature","properties":{"PlaceName":"The Standard"},"geometry":{"coordinates":[-84.2891239,30.44616335],"type":"Point"}},{"type":"Feature","properties":{"PlaceName":"The Capitol"},"geometry":{"coordinates":[-84.32787128,30.44536074],"type":"Point"}},{"type":"Feature","properties":{"PlaceName":"University Village"},"geometry":{"coordinates":[-84.31232241,30.44840559],"type":"Point"}},{"type":"Feature","properties":{"PlaceName":"Oktiv"},"geometry":{"coordinates":[-84.31778108,30.44391922],"type":"Point"}},{"type":"Feature","properties":{"PlaceName":"Quantum"},"geometry":{"coordinates":[-84.30821909,30.44659996],"type":"Point"}},{"type":"Feature","properties":{"PlaceName":"The Luxe"},"geometry":{"coordinates":[-84.30807515,30.44756426],"type":"Point"}},{"type":"Feature","properties":{"PlaceName":"Renegade Tallahassee"},"geometry":{"coordinates":[-84.30986542,30.44691689],"type":"Point"}},{"type":"Feature","properties":{"PlaceName":"NxNW"},"geometry":{"coordinates":[-84.30686156,30.4522154],"type":"Point"}},{"type":"Feature","properties":{"PlaceName":"Locale Tallahassee"},"geometry":{"coordinates":[-84.31161525,30.44089101],"type":"Point"}},{"type":"Feature","properties":{"PlaceName":"GrandMarc"},"geometry":{"coordinates":[-84.30316455,30.44936831],"type":"Point"}},{"type":"Feature","properties":{"PlaceName":"601 Copeland"},"geometry":{"coordinates":[-84.29063312,30.43727498],"type":"Point"}},{"type":"Feature","properties":{"PlaceName":"Innovation Overlook"},"geometry":{"coordinates":[-84.30714417,30.42369681],"type":"Point"}},{"type":"Feature","properties":{"PlaceName":"Stadium Centre"},"geometry":{"coordinates":[-84.29425896,30.43527893],"type":"Point"}},{"type":"Feature","properties":{"PlaceName":"U Club"},"geometry":{"coordinates":[-84.29986788,30.44999537],"type":"Point"}},{"type":"Feature","properties":{"PlaceName":"The Sanctuary"},"geometry":{"coordinates":[-84.3237236,30.44120667],"type":"Point"}},{"type":"Feature","properties":{"PlaceName":"Vertex"},"geometry":{"coordinates":[-84.31229938,30.43552586],"type":"Point"}},{"type":"Feature","properties":{"PlaceName":"Campus West"},"geometry":{"coordinates":[-84.31563217,30.44689641],"type":"Point"}},{"type":"Feature","properties":{"PlaceName":"The Swan Luxury Studio"},"geometry":{"coordinates":[-84.29974117,30.48028643],"type":"Point"}},{"type":"Feature","properties":{"PlaceName":"The Social 2700"},"geometry":{"coordinates":[-84.33089937,30.44232867],"type":"Point"}},{"type":"Feature","properties":{"PlaceName":"Onyx Apartments"},"geometry":{"coordinates":[-84.2882475,30.44175464],"type":"Point"}},{"type":"Feature","properties":{"PlaceName":"The Venetian"},"geometry":{"coordinates":[-84.31707447,30.43935782],"type":"Point"}},{"type":"Feature","properties":{"PlaceName":"Renew Tallahassee"},"geometry":{"coordinates":[-84.30990513,30.46120444],"type":"Point"}},{"type":"Feature","properties":{"PlaceName":"Stonegate Apartments"},"geometry":{"coordinates":[-84.30869635,30.47547477],"type":"Point"}},{"type":"Feature","properties":{"PlaceName":"The Social Seminole"},"geometry":{"coordinates":[-84.3167689,30.45274232],"type":"Point"}},{"type":"Feature","properties":{"PlaceName":"Campus Row"},"geometry":{"coordinates":[-84.29528713,30.44754757],"type":"Point"}},{"type":"Feature","properties":{"PlaceName":"Brookwood Apartments"},"geometry":{"coordinates":[-84.24227835,30.44049707],"type":"Point"}},{"type":"Feature","properties":{"PlaceName":"Villa Capri"},"geometry":{"coordinates":[-84.31175848,30.43958151],"type":"Point"}},{"type":"Feature","properties":{"PlaceName":"Southgate Campus Centre"},"geometry":{"coordinates":[-84.29387366,30.43921355],"type":"Point"}},{"type":"Feature","properties":{"PlaceName":"Villa Reanna"},"geometry":{"coordinates":[-84.31556807,30.44090622],"type":"Point"}},{"type":"Feature","properties":{"PlaceName":"Sienna Square"},"geometry":{"coordinates":[-84.22732209,30.46828113],"type":"Point"}},{"type":"Feature","properties":{"PlaceName":"The Ridge"},"geometry":{"coordinates":[-84.31358495,30.47896625],"type":"Point"}},{"type":"Feature","properties":{"PlaceName":"Villa Lucia"},"geometry":{"coordinates":[-84.31281395,30.43784173],"type":"Point"}},{"type":"Feature","properties":{"PlaceName":"Univeristy Green Condos"},"geometry":{"coordinates":[-84.34911161,30.4589492],"type":"Point"}},{"type":"Feature","properties":{"PlaceName":"Villa Bella Vista"},"geometry":{"coordinates":[-84.31321766,30.43819231],"type":"Point"}},{"type":"Feature","properties":{"PlaceName":"Forum Tallahassee"},"geometry":{"coordinates":[-84.33187,30.44954324],"type":"Point"}},{"type":"Feature","properties":{"PlaceName":"Green Briar Garden Hosuing"},"geometry":{"coordinates":[-84.3203529,30.43491228],"type":"Point"}},{"type":"Feature","properties":{"PlaceName":"University Center Apartments"},"geometry":{"coordinates":[-84.30585463,30.43404908],"type":"Point"}},{"type":"Feature","properties":{},"geometry":{"coordinates":[[-84.29096158330084,30.439809415634826],[-84.29095804894196,30.443537326214283],[-84.2944988587915,30.443545666745266],[-84.29452553790988,30.444411559222402],[-84.30570739594252,30.44889326264854],[-84.30576408206943,30.44653779354917],[-84.30629693166145,30.446381411842907],[-84.30620909413923,30.437376831295083],[-84.30567624454721,30.436516647985016],[-84.30403234686987,30.436086553484614],[-84.302286414164,30.435793306146323],[-84.30116402885352,30.436340700464342],[-84.30099832632096,30.437712652525548],[-84.29616447005759,30.43761928981654],[-84.29618234569122,30.439643372303806],[-84.29095069152228,30.43979773061031]],"type":"LineString"}}]}