{"type":"FeatureCollection","features":[{"type":"Feature","properties":{"PlaceName":"The Standard"},"geometry":{"type":"Point","coordinates":[-84.2891239,30.44616335]}},{"type":"Feature","properties":{"PlaceName":"The Capitol"},"geometry":{"type":"Point","coordinates":[-84.32787128,30.44536074]}},{"type":"Feature","properties":{"PlaceName":"University Village"},"geometry":{"type":"Point","coordinates":[-84.31232241,30.44840559]}},{"type":"Feature","properties":{"PlaceName":"Oktiv"},"geometry":{"type":"Point","coordinates":[-84.31778108,30.44391922]}},{"type":"Feature","properties":{"PlaceName":"Quantum"},"geometry":{"type":"Point","coordinates":[-84.30821909,30.44659996]}},{"type":"Feature","properties":{"PlaceName":"The Luxe"},"geometry":{"type":"Point","coordinates":[-84.30807515,30.44756426]}},{"type":"Feature","properties":{"PlaceName":"Renegade Tallahassee"},"geometry":{"type":"Point","coordinates":[-84.30986542,30.44691689]}},{"type":"Feature","properties":{"PlaceName":"NxNW"},"geometry":{"type":"Point","coordinates":[-84.30686156,30.4522154]}},{"type":"Feature","properties":{"PlaceName":"Locale Tallahassee"},"geometry":{"type":"Point","coordinates":[-84.31161525,30.44089101]}},{"type":"Feature","properties":{"PlaceName":"GrandMarc"},"geometry":{"type":"Point","coordinates":[-84.30316455,30.44936831]}},{"type":"Feature","properties":{"PlaceName":"601 Copeland"},"geometry":{"type":"Point","coordinates":[-84.29063312,30.43727498]}},{"type":"Feature","properties":{"PlaceName":"Innovation Overlook"},"geometry":{"type":"Point","coordinates":[-84.30714417,30.42369681]}},{"type":"Feature","properties":{"PlaceName":"Stadium Centre"},"geometry":{"type":"Point","coordinates":[-84.29425896,30.43527893]}},{"type":"Feature","properties":{"PlaceName":"U Club"},"geometry":{"type":"Point","coordinates":[-84.29986788,30.44999537]}},{"type":"Feature","properties":{"PlaceName":"The Sanctuary"},"geometry":{"type":"Point","coordinates":[-84.3237236,30.44120667]}},{"type":"Feature","properties":{"PlaceName":"Vertex"},"geometry":{"type":"Point","coordinates":[-84.31229938,30.43552586]}},{"type":"Feature","properties":{"PlaceName":"Campus West"},"geometry":{"type":"Point","coordinates":[-84.31563217,30.44689641]}},{"type":"Feature","properties":{"PlaceName":"The Swan Luxury Studio"},"geometry":{"type":"Point","coordinates":[-84.29974117,30.48028643]}},{"type":"Feature","properties":{"PlaceName":"The Social 2700"},"geometry":{"type":"Point","coordinates":[-84.33089937,30.44232867]}},{"type":"Feature","properties":{"PlaceName":"Serenity Court"},"geometry":{"type":"Point","coordinates":[-84.31993706,30.43271038]}},{"type":"Feature","properties":{"PlaceName":"Onyx Apartments"},"geometry":{"type":"Point","coordinates":[-84.2882475,30.44175464]}},{"type":"Feature","properties":{"PlaceName":"The Venetian"},"geometry":{"type":"Point","coordinates":[-84.31707447,30.43935782]}},{"type":"Feature","properties":{"PlaceName":"Renew Tallahassee"},"geometry":{"type":"Point","coordinates":[-84.30990513,30.46120444]}},{"type":"Feature","properties":{"PlaceName":"Stonegate Apartments"},"geometry":{"type":"Point","coordinates":[-84.30869635,30.47547477]}},{"type":"Feature","properties":{"PlaceName":"The Social Seminole"},"geometry":{"type":"Point","coordinates":[-84.3167689,30.45274232]}},{"type":"Feature","properties":{"PlaceName":"Campus Row"},"geometry":{"type":"Point","coordinates":[-84.29528713,30.44754757]}},{"type":"Feature","properties":{"PlaceName":"Brookwood Apartments"},"geometry":{"type":"Point","coordinates":[-84.24227835,30.44049707]}},{"type":"Feature","properties":{"PlaceName":"Villa Capri"},"geometry":{"type":"Point","coordinates":[-84.31175848,30.43958151]}},{"type":"Feature","properties":{"PlaceName":"Villa Cristina"},"geometry":{"type":"Point","coordinates":[-84.31801696,30.43940702]}},{"type":"Feature","properties":{"PlaceName":"Southgate Campus Centre"},"geometry":{"type":"Point","coordinates":[-84.29387366,30.43921355]}},{"type":"Feature","properties":{"PlaceName":"Villa Reanna"},"geometry":{"type":"Point","coordinates":[-84.31556807,30.44090622]}},{"type":"Feature","properties":{"PlaceName":"Sienna Square"},"geometry":{"type":"Point","coordinates":[-84.22732209,30.46828113]}},{"type":"Feature","properties":{"PlaceName":"The Ridge"},"geometry":{"type":"Point","coordinates":[-84.31358495,30.47896625]}},{"type":"Feature","properties":{"PlaceName":"Villa Lucia"},"geometry":{"type":"Point","coordinates":[-84.31281395,30.43784173]}},{"type":"Feature","properties":{"PlaceName":"Univeristy Green Condos"},"geometry":{"type":"Point","coordinates":[-84.34911161,30.4589492]}},{"type":"Feature","properties":{"PlaceName":"Villa Bella Vista"},"geometry":{"type":"Point","coordinates":[-84.31321766,30.43819231]}},{"type":"Feature","properties":{"PlaceName":"Forum Tallahassee"},"geometry":{"type":"Point","coordinates":[-84.33187,30.44954324]}},{"type":"Feature","properties":{"PlaceName":"Green Briar Garden Hosuing"},"geometry":{"type":"Point","coordinates":[-84.3203529,30.43491228]}},{"type":"Feature","properties":{"PlaceName":"University Center Apartments"},"geometry":{"type":"Point","coordinates":[-84.30585463,30.43404908]}},{"type":"Feature","properties":{"PlaceName":"FSU"},"geometry":{"type":"Point","coordinates":[-84.2978859,30.44218548]}}]}